OBJECT_NAME,OBJECT_ID,EPOCH,MEAN_MOTION,ECCENTRICITY,INCLINATION,RA_OF_ASC_NODE,ARG_OF_PERICENTER,MEAN_ANOMALY,EPHEMERIS_TYPE,CLASSIFICATION_TYPE,NORAD_CAT_ID,ELEMENT_SET_NO,REV_AT_EPOCH,BSTAR,MEAN_MOTION_DOT,MEAN_MOTION_DDOT
STARLINK-32670,2024-229U,2026-05-19T23:09:35.174880,15.27613898,.00006056,42.9956,228.0483,308.7183,51.3615,0,U,62210,999,8146,.41823249E-3,.11276E-3,0
STARLINK-32642,2024-229V,2026-05-20T06:51:06.945984,15.27594725,.00008958,42.9974,226.1535,254.3637,105.7116,0,U,62211,999,8151,.2817289E-3,.7502E-4,0
STARLINK-32668,2024-229W,2026-05-20T06:05:45.392640,15.27618511,.00008109,43.0011,223.3238,262.4472,97.6288,0,U,62212,999,8154,.67707809E-3,.18438E-3,0
STARLINK-32669,2024-229X,2026-05-20T06:14:19.726656,15.27597399,.00022862,42.9970,226.8168,295.4812,64.5803,0,U,62213,999,8150,.50798147E-3,.1375E-3,0
STARLINK-32666,2024-229Y,2026-05-20T06:23:34.368864,15.27595278,.00007746,42.9993,226.8641,241.4111,118.6663,0,U,62214,999,8150,.41832912E-3,.11272E-3,0
STARLINK-32662,2024-229Z,2026-05-20T06:03:13.264704,15.27599697,.00037499,43.0005,226.7593,282.2946,77.7486,0,U,62215,999,8150,.45944244E-3,.12411E-3,0
COSMOS 2580,2024-230A,2026-05-20T05:39:48.137184,13.96677479,.0006594,67.1461,118.7831,264.9399,95.0933,0,U,62216,999,7423,.22085E-5,-.72E-6,0
STARLINK-11394 [DTC],2024-231A,2026-05-20T04:55:10.702272,15.69747205,.00011653,53.1582,108.7332,81.2204,278.8946,0,U,62218,999,8464,.14754882E-2,.182429E-2,0
STARLINK-11490 [DTC],2024-231B,2026-05-20T05:02:14.539200,15.69733972,.00010774,53.1580,108.7651,56.4382,303.6739,0,U,62219,999,8464,.11737979E-2,.144256E-2,0
STARLINK-11466 [DTC],2024-231C,2026-05-20T03:44:41.080992,15.69727858,.00011101,53.1578,109.1433,79.3311,280.7832,0,U,62220,999,8463,.13278905E-2,.163614E-2,0
STARLINK-11468 [DTC],2024-231D,2026-05-20T03:58:48.922464,15.69719386,.00012414,53.1572,109.2070,63.5256,296.5889,0,U,62221,999,8463,.13673035E-2,.16853E-2,0
STARLINK-11488 [DTC],2024-231E,2026-05-20T05:09:18.318240,15.69728147,.00011205,53.1575,108.7988,79.0120,281.1024,0,U,62222,999,8464,.10393611E-2,.127374E-2,0
STARLINK-11483 [DTC],2024-231F,2026-05-20T05:51:32.479488,15.69731656,.00011614,53.1578,108.2557,104.9120,255.2027,0,U,62223,999,8465,.11855777E-2,.145722E-2,0
STARLINK-11492 [DTC],2024-231G,2026-05-20T03:51:45.159840,15.69757716,.00013468,53.1574,109.1861,105.2507,254.8659,0,U,62224,999,8463,.1133911E-2,.13939E-2,0
STARLINK-11471 [DTC],2024-231H,2026-05-20T04:26:55.436640,15.69724544,.00011321,53.1574,108.6146,98.3493,261.7653,0,U,62225,999,8464,.96447425E-3,.118002E-2,0
STARLINK-11475 [DTC],2024-231J,2026-05-20T04:33:57.418560,15.69854783,.0000128,53.1580,108.6320,229.4788,130.6219,0,U,62226,999,8464,.14542305E-2,.180563E-2,0
STARLINK-11469 [DTC],2024-231K,2026-05-20T04:48:06.616512,15.69748768,.00011502,53.1573,108.6951,66.0936,294.0202,0,U,62227,999,8464,.81111152E-3,.99016E-3,0
STARLINK-11476 [DTC],2024-231L,2026-05-20T04:12:47.608128,15.69746228,.00010468,53.1588,108.5358,77.9764,282.1371,0,U,62228,999,8465,.10441549E-2,.128071E-2,0
STARLINK-11485 [DTC],2024-231M,2026-05-20T04:41:02.973120,15.69734006,.00009909,53.1583,108.6627,87.3683,272.7448,0,U,62229,999,8464,.1358082E-2,.167469E-2,0
STARLINK-11481 [DTC],2024-231N,2026-05-20T04:05:52.300608,15.69712666,.0000928,53.1578,109.2380,62.0293,298.0818,0,U,62230,999,8463,.10210736E-2,.125006E-2,0
STARLINK-32650,2024-231P,2026-05-19T23:58:47.565696,15.30206915,.00009634,53.1581,248.5851,81.1145,278.9964,0,U,62231,999,8268,.46299823E-3,.13381E-3,0
STARLINK-32636,2024-231Q,2026-05-19T15:10:46.824096,15.30217810,.00011246,53.1650,249.8554,86.4791,273.6338,0,U,62232,999,8263,.3694487E-3,.10604E-3,0
STARLINK-32643,2024-231R,2026-05-19T23:03:28.239264,15.31716551,.000093,53.1571,235.5652,80.8692,279.2414,0,U,62233,999,8285,.39804608E-3,.12013E-3,0
STARLINK-32652,2024-231S,2026-05-19T14:10:09.617376,15.30227119,.00012801,53.1583,250.2989,95.1810,264.9337,0,U,62234,999,8261,.85502569E-3,.25071E-3,0
STARLINK-32631,2024-231T,2026-05-19T10:04:53.999616,15.31726391,.00004787,53.1600,237.8842,335.1812,24.9167,0,U,62235,999,8277,.43898712E-3,.13293E-3,0
STARLINK-32641,2024-231U,2026-05-19T23:38:14.100288,15.30214071,.00003808,53.1606,235.7117,74.3868,285.7175,0,U,62236,999,8285,.63355323E-3,.1846E-3,0
QIANFAN-37,2024-232B,2026-05-20T06:23:00.340224,13.51009348,.00022676,89.0098,25.3849,61.0846,299.0532,0,U,62238,999,12057,.1754133E-3,.125E-5,0
QIANFAN-38,2024-232C,2026-05-20T05:11:57.880032,13.51008817,.00164826,89.0104,25.3164,95.0754,265.2279,0,U,62239,999,12062,.1720182E-3,.123E-5,0
QIANFAN-39,2024-232D,2026-05-20T05:05:49.659648,14.25508865,.00138658,89.0084,19.2495,282.8290,77.1353,0,U,62240,999,12396,.1194049E-3,.297E-5,0
QIANFAN-40,2024-232E,2026-05-20T05:59:21.590880,13.51008589,.00154213,89.0132,24.9420,101.8555,258.4326,0,U,62241,999,12099,.16366054E-3,.118E-5,0
QIANFAN-41,2024-232F,2026-05-20T06:11:12.507360,13.51004751,.00159265,89.0103,25.2610,91.4469,268.8507,0,U,62242,999,12065,.17587291E-3,.126E-5,0
QIANFAN-42,2024-232G,2026-05-20T05:47:06.491904,14.24598895,.00128387,89.0082,19.3170,290.6764,69.3051,0,U,62243,999,12393,.11949679E-3,.292E-5,0
QIANFAN-43,2024-232H,2026-05-20T06:05:16.548864,13.51010149,.00174158,89.0107,25.3336,96.2732,264.0403,0,U,62244,999,8926,.17490205E-3,.125E-5,0
QIANFAN-44,2024-232J,2026-05-20T05:47:31.370784,13.51006770,.00156586,89.0105,25.1431,93.4527,266.8415,0,U,62245,999,12073,.16070848E-3,.116E-5,0
QIANFAN-45,2024-232K,2026-05-20T05:00:06.782976,13.51004341,.00163272,89.0109,25.2985,93.3226,266.9793,0,U,62246,999,12065,.15179802E-3,.11E-5,0
QIANFAN-46,2024-232L,2026-05-20T05:35:39.579072,13.51005201,.00163216,89.0105,25.3585,98.1695,262.1308,0,U,62247,999,12061,.182102E-3,.13E-5,0
QIANFAN-47,2024-232M,2026-05-20T05:41:34.829088,13.51009006,.00167603,89.0101,25.2848,97.4447,262.8609,0,U,62248,999,12064,.17256516E-3,.124E-5,0
QIANFAN-48,2024-232N,2026-05-20T04:48:17.237664,13.51008038,.00189786,89.0105,25.2965,100.1658,260.1634,0,U,62249,999,12064,.18388467E-3,.131E-5,0
QIANFAN-49,2024-232P,2026-05-20T06:17:09.070656,13.51006907,.001613,89.0104,25.3016,94.7888,265.5106,0,U,62250,999,8924,.18007612E-3,.128E-5,0
QIANFAN-50,2024-232Q,2026-05-20T05:06:01.712448,13.51009080,.00177663,89.0109,25.3232,96.3026,264.0149,0,U,62251,999,8926,.1455752E-3,.106E-5,0
QIANFAN-51,2024-232R,2026-05-20T06:28:58.761120,13.51008850,.00152155,89.0103,25.3017,99.0464,261.2410,0,U,62252,999,8926,.17445599E-3,.125E-5,0
QIANFAN-52,2024-232S,2026-05-20T05:23:48.159744,13.51005759,.00173027,89.0099,25.1737,92.6487,267.6645,0,U,62253,999,8934,.17713112E-3,.127E-5,0
QIANFAN-53,2024-232T,2026-05-20T04:54:11.048256,13.51008629,.00161727,89.0107,25.2922,93.5199,266.7803,0,U,62254,999,8930,.14913044E-3,.108E-5,0
QIANFAN-54,2024-232U,2026-05-20T05:53:24.096192,13.51007195,.00035927,89.0098,24.9527,108.4971,251.6571,0,U,62255,999,12081,.15621879E-3,.113E-5,0
PROBA-3 OSC,2024-233C,2026-05-15T13:05:18.824064,1.22073529,.80067647,59.6970,100.2254,204.6331,71.4263,0,U,62258,999,641,-.1133708E-1,-.121E-5,0
SXM-9,2024-234A,2026-05-20T04:19:38.637984,1.00270477,.00048738,0.0141,329.5453,340.0125,268.0405,0,U,62259,999,529,0,-.209E-5,0
SENTINEL-1C,2024-235A,2026-05-20T06:53:06.133920,14.59197908,.00013812,98.1819,147.9988,89.6268,270.5090,0,U,62261,999,7734,.27702162E-4,.85E-6,0
STARLINK-32632,2024-231V,2026-05-19T23:48:09.094752,15.30221819,.00010519,53.1568,248.5358,80.0231,280.0888,0,U,62262,999,8268,.41299514E-3,.119E-3,0
STARLINK-11496 [DTC],2024-237A,2026-05-19T14:49:35.852448,15.70896832,.00025204,43.0000,349.4191,258.2576,101.8009,0,U,62267,999,8420,.14305834E-2,.187778E-2,0
STARLINK-11501 [DTC],2024-237B,2026-05-20T06:50:53.419200,15.71103864,.00026296,43.0025,344.9438,288.1581,71.9000,0,U,62268,999,8426,.13374013E-2,.17682E-2,0
STARLINK-11491 [DTC],2024-237C,2026-05-20T06:43:14.376000,15.70924149,.00023873,43.0001,344.9026,274.6236,85.4359,0,U,62269,999,8431,.12533602E-2,.164177E-2,0
STARLINK-11479 [DTC],2024-237D,2026-05-19T23:28:20.671392,15.70908823,.00029613,43.0033,346.9460,269.3569,90.6959,0,U,62270,999,8426,.11962906E-2,.156442E-2,0
STARLINK-11489 [DTC],2024-237E,2026-05-20T06:28:08.099616,15.70918219,.00021878,43.0091,345.7140,273.1774,86.8843,0,U,62271,999,8430,.10086209E-2,.131473E-2,0
STARLINK-11494 [DTC],2024-237F,2026-05-19T22:19:45.638112,15.71008965,.0002352,43.0021,347.4580,278.6049,81.4552,0,U,62272,999,8420,.1221E-2,.160426E-2,0
STARLINK-11333 [DTC],2024-237G,2026-05-20T06:12:51.280704,15.70895190,.00028034,42.9995,345.6274,287.4161,72.6400,0,U,62273,999,8430,.12735678E-2,.166686E-2,0
STARLINK-11504 [DTC],2024-237H,2026-05-19T23:43:40.149696,15.70888605,.00027302,43.0036,347.0294,267.7364,92.3191,0,U,62274,999,8421,.1503566E-2,.197549E-2,0
STARLINK-11495 [DTC],2024-237J,2026-05-19T22:57:59.042304,15.70859571,.0001933,42.9991,347.6717,263.4075,96.6573,0,U,62275,999,8420,.13109E-2,.171421E-2,0
STARLINK-11498 [DTC],2024-237K,2026-05-20T06:58:31.455840,15.70922110,.00030821,42.9998,344.9859,269.9873,90.0641,0,U,62276,999,8431,.12414778E-2,.162583E-2,0
STARLINK-11484 [DTC],2024-237L,2026-05-19T20:32:54.897216,15.70939663,.00026707,42.9986,347.7526,265.3260,94.7303,0,U,62277,999,8424,.13168071E-2,.172809E-2,0
STARLINK-11487 [DTC],2024-237M,2026-05-19T21:11:07.996416,15.70886108,.00017513,43.0002,347.9658,273.0019,87.0648,0,U,62278,999,8424,.20416413E-2,.27076E-2,0
STARLINK-11499 [DTC],2024-237N,2026-05-20T00:00:02.000160,15.70817078,.00018694,43.0006,347.4245,272.3971,326.4964,0,U,62279,999,600,.32239232E-3,.41084E-3,0
STARLINK-33548,2024-237P,2026-05-20T01:36:12.510144,15.27570613,.00013872,42.9962,162.3963,237.4615,122.6102,0,U,62280,999,8223,.33267533E-3,.8901E-4,0
STARLINK-33544,2024-237Q,2026-05-19T19:02:54.498048,15.27575606,.00015023,42.9986,175.0391,270.5930,89.4749,0,U,62281,999,8206,.31946353E-3,.8538E-4,0
